STAR ONE C2             
1 32768U 08018B   23263.43537060 -.00000270  00000+0  00000+0 0  9995
2 32768   0.0448   6.1196 0002435 173.4867 271.2072  1.00270667 56514
AMOS-3                  
1 32794U 08022A   23263.32095503 -.00000028  00000+0  00000+0 0  9999
2 32794   0.0312 244.0186 0003236 281.2054 305.1561  1.00272693 56411
GALAXY 18 (G-18)        
1 32951U 08024A   23262.47574387  .00000033  00000+0  00000+0 0  9998
2 32951   0.0217 253.6839 0003093 287.7933 224.9096  1.00271822 56042
CHINASAT 9 (ZX 9)       
1 33051U 08028A   23263.05352711 -.00000240  00000+0  00000+0 0  9995
2 33051   0.0098 202.1588 0005285 347.5748 280.4465  1.00272194 55976
SKYNET 5C               
1 33055U 08030A   23263.17493116 -.00000132  00000+0  00000+0 0  9990
2 33055   1.2021  87.6246 0004624  94.1739 222.2088  1.00271194 55869
TURKSAT 3A              
1 33056U 08030B   23263.18685326  .00000153  00000+0  00000+0 0  9990
2 33056   0.0282 127.5119 0005022  39.8934 300.6893  1.00273904 56042
INTELSAT 25 (IS-25)     
1 33153U 08034A   23263.02889972 -.00000216  00000+0  00000+0 0  9999
2 33153   0.1134  89.6745 0003074  97.9550 149.9555  1.00270993 55597
BADR-6                  
1 33154U 08034B   23263.18363344  .00000152  00000+0  00000+0 0  9995
2 33154   0.2555  83.1397 0002467  74.7530 293.0512  1.00274124 55712
ECHOSTAR 11             
1 33207U 08035A   23263.08494223 -.00000049  00000+0  00000+0 0  9991
2 33207   0.0172 252.7324 0002640 274.3021 112.2731  1.00271829 55617
SUPERBIRD-C2            
1 33274U 08038A   23262.43371997 -.00000243  00000+0  00000+0 0  9994
2 33274   0.0209 121.5880 0001860  50.4085 126.1915  1.00272902 55338
AMC-21                  
1 33275U 08038B   23262.72363656  .00000044  00000+0  00000+0 0  9998
2 33275   0.3493  94.6463 0003059  87.8969 311.4438  1.00271881 55425
INMARSAT 4-F3           
1 33278U 08039A   23263.41723375 -.00000132  00000+0  00000+0 0  9996
2 33278   3.5231  24.7847 0002857 165.4449 221.0308  1.00272415 55239
NIMIQ 4                 
1 33373U 08044A   23263.11646572 -.00000213  00000+0  00000+0 0  9998
2 33373   0.0283 248.3251 0002219 297.2403 133.1206  1.00271043 54801
GALAXY 19 (G-19)        
1 33376U 08045A   23262.45792861 -.00000132  00000+0  00000+0 0  9991
2 33376   0.0191 173.6441 0002835   6.8008 245.5181  1.00271846 54791
ASTRA 1M                
1 33436U 08057A   23263.03899434  .00000127  00000+0  00000+0 0  9993
2 33436   0.0183 145.9390 0005157  16.6770 229.2882  1.00271577 54449
CIEL-2                  
1 33453U 08063A   23262.72285337  .00000065  00000+0  00000+0 0  9996
2 33453   0.1694  96.0292 0002801  76.7440 316.9820  1.00273209 54087
EUTELSAT HOTBIRD 13C    
1 33459U 08065A   23263.17597543 -.00000093  00000+0  00000+0 0  9991
2 33459   0.3583  86.7502 0005042 109.8839 213.0354  1.00271548 54210
FENGYUN 2E              
1 33463U 08066A   23262.59523281 -.00000193  00000+0  00000+0 0  9991
2 33463   6.9291  62.2938 0000733 251.6483 345.0068  1.00275148 54047
EXPRESS-AM44            
1 33595U 09007A   23262.38799056 -.00000081  00000+0  00000+0 0  9991
2 33595   0.8684  90.0649 0003979  88.0727 308.5874  1.00272236 53490
NSS-9                   
1 33749U 09008A   23263.14325497  .00000079  00000+0  00000+0 0  9998
2 33749   0.0399 333.1541 0002132 194.6896  65.5803  1.00272354 53526
EUTELSAT 33E            
1 33750U 09008B   23262.28243678  .00000163  00000+0  00000+0 0  9998
2 33750   0.0776  81.7201 0004649  96.2670 314.7202  1.00271865 53559
TELSTAR 11N             
1 34111U 09009A   23263.31434132 -.00000244  00000+0  00000+0 0  9994
2 34111   0.0190 198.9824 0002230 314.6303 280.9540  1.00269863 53382
EUTELSAT 10A            
1 34710U 09016A   23262.29355115  .00000076  00000+0  00000+0 0  9998
2 34710   0.4026  90.6739 0006298  71.5665 311.3740  1.00271194 52920
WGS F2 (USA 204)        
1 34713U 09017A   23262.97092375  .00000075  00000+0  00000+0 0  9992
2 34713   0.0099 181.9618 0000516 306.8827 276.8265  1.00275137 52906
SES-7 (PROTOSTAR 2)     
1 34941U 09027A   23262.61229882 -.00000338  00000+0  00000+0 0  9995
2 34941   0.0422  77.6121 0001485 144.1496 105.2065  1.00272439 52578
MEASAT-3A               
1 35362U 09032A   23262.79273299 -.00000234  00000+0  00000+0 0  9994
2 35362   0.0475 235.0446 0003744 331.8909 168.3952  1.00270260 52191
GOES 14                 
1 35491U 09033A   23262.45118472 -.00000059  00000+0  00000+0 0  9997
2 35491   0.4007 265.6530 0004121 227.2903 279.0275  1.00272116 52116
FM-5                    
1 35493U 09034A   23263.16135564 -.00000193  00000+0  00000+0 0  9999
2 35493   0.0220 256.4183 0000674 221.9739 212.3642  1.00270528 51943
TERRESTAR-1             
1 35496U 09035A   23263.08476819 -.00000048  00000+0  00000+0 0  9994
2 35496   3.9270  45.3920 0002825 139.6972  93.1652  1.00272551 52115
ASIASAT 5               
1 35696U 09042A   23262.74424682 -.00000300  00000+0  00000+0 0  9998
2 35696   0.0336 250.9045 0001476 273.0407 202.8781  1.00271567 51631
JCSAT-12 (JCSAT-RA)     
1 35755U 09044A   23262.36785378 -.00000320  00000+0  00000+0 0  9998
2 35755   0.0345 110.2904 0001809  11.7988 140.4218  1.00271856 51611
OPTUS D3                
1 35756U 09044B   23262.99077250 -.00000140  00000+0  00000+0 0  9991
2 35756   0.0615 346.1190 0002464 186.3006 338.9014  1.00269131 51595
NIMIQ 5                 
1 35873U 09050A   23262.66663565 -.00000249  00000+0  00000+0 0  9992
2 35873   0.0162 240.0779 0002814 298.5583 346.9762  1.00272614 51300
AMAZONAS 2              
1 35942U 09054A   23263.43764670 -.00000276  00000+0  00000+0 0  9998
2 35942   0.0255 142.6056 0004942  21.7156 291.3353  1.00272345 51143
COMSATBW-1              
1 35943U 09054B   23262.72366278  .00000031  00000+0  00000+0 0  9990
2 35943   0.0326 105.6811 0002861  97.2897 118.9674  1.00275695 51218
NSS-12                  
1 36032U 09058A   23262.71576983  .00000079  00000+0  00000+0 0  9991
2 36032   0.0315 302.4484 0002708 236.7841 133.8135  1.00272044 50861
THOR 6                  
1 36033U 09058B   23263.32165122 -.00000003  00000+0  00000+0 0  9997
2 36033   0.0109 213.6952 0001782 330.3382 289.8872  1.00271875 50937
INTELSAT 14 (IS-14)     
1 36097U 09064A   23263.16993778 -.00000266  00000+0  00000+0 0  9993
2 36097   0.0168 157.0887 0002383  38.2723 179.6165  1.00269063 50657
EUTELSAT 36B            
1 36101U 09065A   23262.03904041  .00000163  00000+0  00000+0 0  9995
2 36101   0.0675 356.1850 0005064 182.2209 229.2329  1.00270931 50768
INTELSAT 15 (IS-15)     
1 36106U 09067A   23262.69910535 -.00000178  00000+0  00000+0 0  9996
2 36106   0.0438 335.7730 0002261 195.6484 163.7633  1.00270537 50569
WGS F3 (USA 211)        
1 36108U 09068A   23263.33313365 -.00000261  00000+0  00000+0 0  9992
2 36108   0.1970  90.9806 0000546 294.5037  50.6474  1.00268046 50473
DIRECTV 12              
1 36131U 09075A   23263.41409229 -.00000097  00000+0  00000+0 0  9997
2 36131   0.0084  70.8572 0000786  40.4085 294.1569  1.00272490 50353
BEIDOU-2 G1             
1 36287U 10001A   23263.05196248 -.00000272  00000+0  00000+0 0  9999
2 36287   2.0423  52.5225 0003310 320.7026 144.6332  1.00274169 50128
RADUGA-1M 2             
1 36358U 10002A   23262.69910535 -.00000176  00000+0  00000+0 0  9994
2 36358   1.0115  92.2661 0003917  75.6283 167.1056  1.00274741 49962
SDO                     
1 36395U 10005A   23262.59924382 -.00000053  00000+0  00000+0 0  9996
2 36395  32.5616 101.8640 0001486 200.5848 169.6981  1.00274932 49996
INTELSAT 16 (IS-16)     
1 36397U 10006A   23263.23943039 -.00000238  00000+0  00000+0 0  9996
2 36397   0.0386 320.9017 0002108 216.2108 191.7649  1.00270638 49681
EWS-G2 (GOES 15)        
1 36411U 10008A   23263.60257626 -.00000300  00000+0  00000+0 0  9996
2 36411   0.3762 274.9996 0004541 308.5022 100.7813  0.99977519 49600
ECHOSTAR 14             
1 36499U 10010A   23263.08320178  .00000007  00000+0  00000+0 0  9993
2 36499   0.0158 212.9011 0002000 324.7275  92.1627  1.00271116 49497
SES-1                   
1 36516U 10016A   23262.46021630 -.00000107  00000+0  00000+0 0  9993
2 36516   0.0425 315.0774 0002433 234.3508 233.3746  1.00271584 49096
ASTRA 3B                
1 36581U 10021A   23263.03986456  .00000144  00000+0  00000+0 0  9991
2 36581   0.0536  12.2069 0003374 152.4496 231.8582  1.00273512 48616
COMSATBW-2              
1 36582U 10021B   23262.73486881  .00000096  00000+0  00000+0 0  9991
2 36582   0.0248  94.1872 0002534  99.9062  82.0471  1.00270061 48944
BEIDOU-2 G3             
1 36590U 10024A   23263.33766337 -.00000128  00000+0  00000+0 0  9994
2 36590   2.2089  56.9804 0006132 357.8039 145.3778  1.00270745 48749
BADR-5                  
1 36592U 10025A   23263.25534001  .00000152  00000+0  00000+0 0  9995
2 36592   0.0202 159.9407 0005521  12.4242 304.4524  1.00274166 48869
COMS 1                  
1 36744U 10032A   23262.36785378 -.00000336  00000+0  00000+0 0  9993
2 36744   2.2450  87.7611 0000837  89.7591  81.0782  1.00271218 48602
ARABSAT-5A              
1 36745U 10032B   23262.53967087  .00000161  00000+0  00000+0 0  9997
2 36745   0.0643  46.2803 0004205 109.8579  66.8137  1.00270285 48584
ECHOSTAR 15             
1 36792U 10034A   23263.43687976 -.00000275  00000+0  00000+0 0  9994
2 36792   0.0163 257.4756 0002186 255.8109 301.4079  1.00269516 48367
BEIDOU-2 IGSO-1         
1 36828U 10036A   23262.30560215 -.00000109  00000+0  00000+0 0  9993
2 36828  54.2345 172.0378 0036555 188.0288 213.7884  1.00249189 48187
NILESAT 201             
1 36830U 10037A   23263.17710672 -.00000050  00000+0  00000+0 0  9992
2 36830   0.0217 178.0725 0005625 357.3409 240.1626  1.00272150 48259
RASCOM-QAF 1R           
1 36831U 10037B   23263.32234740  .00000026  00000+0  00000+0 0  9999
2 36831   0.0387 112.7587 0005754  77.7463 287.3713  1.00272443 48250
AEHF-1 (USA 214)        
1 36868U 10039A   23263.24493650  .00000033  00000+0  00000+0 0  9997
2 36868   5.6883  80.7328 0006110  73.0462 297.2789  1.00270974 48401
